STARLINK-31049          
1 58543U 23192N   25143.89272814  .00000193  00000+0  18630-4 0  9992
2 58543  53.1613 328.9951 0001176  95.6976 264.4158 15.30192526 81610
STARLINK-31048          
1 58544U 23192P   25143.78836054  .00000535  00000+0  30177-4 0  9993
2 58544  53.1612 329.0171 0000719  72.0260 288.0819 15.30192950 81609
STARLINK-31057          
1 58545U 23192Q   25143.83058114  .00000125  00000+0  16336-4 0  9999
2 58545  53.1612 329.3191 0001264  92.0699 268.0446 15.30190088 81603
STARLINK-31050          
1 58546U 23192R   25143.89905895  .00000197  00000+0  18786-4 0  9993
2 58546  53.1604 329.0335 0001106  95.7139 264.3988 15.30190731 82747
STARLINK-31063          
1 58547U 23192S   25143.91668981  .00046761  00000+0  15826-2 0  9996
2 58547  53.1574 318.3771 0000437  68.2209 336.8838 15.30167625  5805
STARLINK-31016          
1 58548U 23192T   25143.79152761  .00000369  00000+0  24599-4 0  9990
2 58548  53.1604 329.0340 0001166  77.5542 282.5589 15.30193550 81602
STARLINK-31053          
1 58549U 23192U   25143.90221620 -.00007425  00000+0 -23860-3 0  9996
2 58549  53.1606 329.0515 0001409 131.7715 228.3406 15.30224975 82809
STARLINK-31056          
1 58550U 23192V   25143.79470050  .00000648  00000+0  34005-4 0  9990
2 58550  53.1611 329.0989 0001186  74.1142 285.9990 15.30193390 81608
STARLINK-30999          
1 58551U 23192W   25143.75478411  .00000183  00000+0  18309-4 0  9999
2 58551  53.1609 319.4997 0001143  87.7100 272.4032 15.30191293 81737
STARLINK-31046          
1 58552U 23192X   25143.51772332  .00000424  00000+0  26447-4 0  9993
2 58552  53.1603 330.9178 0001063 111.9975 248.1139 15.30189099 81551
HONGHU 2                
1 58555U 23193C   25144.41079969  .00006006  00000+0  31596-3 0  9995
2 58555  97.2596 143.2248 0034357 201.0578 158.9243 15.15489089 81109
YAOGAN-39 05A           
1 58557U 23194A   25144.57775616  .00010409  00000+0  43251-3 0  9990
2 58557  34.9996 341.3183 0006054  25.4868 334.6144 15.23024990 81079
YAOGAN-39 05B           
1 58558U 23194B   25144.52103859  .00005543  00000+0  27994-3 0  9999
2 58558  34.9940 343.6094 0005088 236.3105 123.7123 15.16452341 81035
YAOGAN-39 05C           
1 58559U 23194C   25144.52499562  .00006256  00000+0  31620-3 0  9992
2 58559  34.9932 343.6239 0006780 164.1680 195.9245 15.16386731 81051
ALISIO-1                
1 58562U 23185M   25143.89968187  .00003037  00000+0  17600-3 0  9995
2 58562  97.5782 214.5197 0005938 209.6313 150.4582 15.12948788 79615
INTUITION-1             
1 58565U 23174CW  25144.51153883  .00022050  00000+0  51703-3 0  9993
2 58565  97.4134 225.0982 0009720 103.1405 257.0927 15.42039692 85881
QPS-SAR-5 (TSUKUYOMI-I) 
1 58578U 23196A   25144.20789717  .00007277  00000+0  42560-3 0  9993
2 58578  42.0137  52.3596 0018513 210.3622 149.6136 15.12040309 79164
YAOGAN-41               
1 58582U 23197A   25143.89887238 -.00000357  00000+0  00000+0 0  9992
2 58582   3.8846 308.8989 0016394 177.8481 201.7412  1.00271234  5421
ARKTIKA-M 2             
1 58584U 23198A   25143.94347222  .00000232  00000+0  00000+0 0  9996
2 58584  63.2286 197.0241 6875177 268.9122  18.4532  2.00610916 10508
LIANGXI (DI'ER-1)       
1 58586U 23199A   25144.52266711  .00062487  00000+0  63230-3 0  9995
2 58586  97.4401 275.1608 0005936 174.1744 185.9585 15.65080897 80524
STARLINK-31044          
1 58589U 23200A   25143.74744262  .00000105  00000+0  22836-4 0  9993
2 58589  43.0045 305.3432 0001324 265.4061  94.6630 15.02532068 79980
STARLINK-31062          
1 58590U 23200B   25144.49681839 -.00000740  00000+0 -39744-4 0  9991
2 58590  43.0056 303.2295 0001593 270.8368  89.2292 15.02524677 80103
STARLINK-31096          
1 58592U 23200D   25143.79319144  .00000064  00000+0  19801-4 0  9991
2 58592  43.0038 306.5566 0001131 269.2307  90.8405 15.02534543 79975
STARLINK-31094          
1 58593U 23200E   25143.47166286  .00000217  00000+0  31128-4 0  9990
2 58593  43.0044 307.5902 0001211 272.4859  87.5844 15.02532740 79938
STARLINK-31075          
1 58594U 23200F   25144.12311895  .00000090  00000+0  21765-4 0  9997
2 58594  43.0037 303.8674 0001027 281.0788  78.9939 15.02534450 80063
STARLINK-30857          
1 58595U 23200G   25143.86053786  .00000658  00000+0  63798-4 0  9992
2 58595  43.0042 305.3486 0001404 267.7239  92.3442 15.02533473 79992
STARLINK-31059          
1 58596U 23200H   25144.43706264  .00002119  00000+0  86493-4 0  9994
2 58596  42.9997 205.6748 0001197 258.8642 101.2075 15.27581395 81247
STARLINK-31087          
1 58597U 23200J   25143.78740185 -.00000450  00000+0 -18253-4 0  9999
2 58597  43.0038 305.6576 0001200 276.9603  83.1103 15.02533254 79879
STARLINK-31079          
1 58598U 23200K   25143.78067869  .00009242  00000+0  68757-3 0  9990
2 58598  43.0020 305.6066 0002074 254.0993 105.9621 15.03124654 79985
STARLINK-31052          
1 58600U 23200M   25144.44551627  .00001116  00000+0  97681-4 0  9999
2 58600  43.0034 301.9933 0001447 244.4426 115.6266 15.02536202 80107
STARLINK-31074          
1 58601U 23200N   25143.84389107  .00000501  00000+0  52145-4 0  9998
2 58601  43.0051 305.2232 0001408 271.0539  89.0142 15.02533875 79999
STARLINK-31071          
1 58602U 23200P   25143.86278205  .00000476  00000+0  28036-4 0  9990
2 58602  43.0009 204.7228 0001319 271.9817  88.0883 15.25910147 81170
STARLINK-31080          
1 58603U 23200Q   25144.17294708 -.00000842  00000+0 -47306-4 0  9992
2 58603  43.0032 303.3918 0001023 269.0219  91.0506 15.02527737 79789
STARLINK-31088          
1 58604U 23200R   25144.50196609  .00005441  00000+0  41706-3 0  9996
2 58604  43.0025 301.5434 0001405 272.4173  87.6508 15.02578499 80119
STARLINK-31038          
1 58605U 23200S   25144.49534630  .00001678  00000+0  13926-3 0  9996
2 58605  43.0044 301.5091 0001515 251.6178 108.4499 15.02531692 80111
STARLINK-31082          
1 58606U 23200T   25142.96968649 -.00000312  00000+0 -80377-5 0  9990
2 58606  43.0045 309.8417 0001469 265.7739  94.2936 15.02537184 79863
STARLINK-31069          
1 58607U 23200U   25144.15963565  .00001196  00000+0  10363-3 0  9991
2 58607  43.0057 303.2890 0001628 267.7900  92.2756 15.02538897 80063
STARLINK-31067          
1 58608U 23200V   25143.49152040  .00000635  00000+0  62067-4 0  9992
2 58608  43.0036 306.8739 0001152 266.2888  93.7823 15.02535307 79942
STARLINK-31085          
1 58609U 23200W   25144.48537291  .00000103  00000+0  22678-4 0  9992
2 58609  43.0043 301.4319 0001310 263.3654  96.7040 15.02527360 80127
STARLINK-31089          
1 58610U 23200X   25143.74422303  .00000622  00000+0  61161-4 0  9995
2 58610  43.0062 306.1325 0001648 269.7750  90.2903 15.02534799 79972
STARLINK-31061          
1 58611U 23200Y   25143.75077978 -.00000646  00000+0 -32736-4 0  9995
2 58611  43.0032 305.3765 0001178 262.2488  97.8220 15.02526052 79982
COSMOS 2573             
1 58614U 23201A   25144.52609850  .00003657  00000+0  15146-3 0  9993
2 58614  97.5880  83.0343 0001115 108.9711 251.1647 15.24576152 79267
STARLINK-31054          
1 58619U 23203B   25144.51113633  .00001402  00000+0  60508-4 0  9997
2 58619  43.0029 260.3645 0001399 256.1562 103.9134 15.27563712 80440
STARLINK-31134          
1 58621U 23203D   25144.33682077  .00001297  00000+0  56637-4 0  9993
2 58621  43.0014 261.6338 0000731 256.2286 103.8484 15.27572172 80473
STARLINK-31133          
1 58622U 23203E   25144.31098955 -.00188531  00000+0 -71263-2 0  9997
2 58622  43.0033 261.4408 0002075 266.4340  93.6274 15.27073158 79301
STARLINK-31068          
1 58623U 23203F   25143.65340800 -.00000132  00000+0  47036-5 0  9996
2 58623  42.9983 265.1070 0000335  61.1145 298.9740 15.27571185 79200
STARLINK-31129          
1 58624U 23203G   25144.37005863 -.00016740  00000+0 -59880-3 0  9995
2 58624  43.0016 261.0253 0000818 283.7417  76.3343 15.27655652 80489
STARLINK-30774          
1 58625U 23203H   25144.36622640  .00001003  00000+0  45949-4 0  9999
2 58625  43.0011 260.9946 0000044 127.2223 232.8633 15.27572620 80541
STARLINK-31086          
1 58626U 23203J   25144.34052662  .00002622  00000+0  10479-3 0  9996
2 58626  42.9972 260.8061 0001099 264.6311  95.4415 15.27575254 80534
STARLINK-31065          
1 58627U 23203K   25144.33132396  .00015328  00000+0  58879-3 0  9992
2 58627  42.9956 260.7378 0000700 270.5781  89.4990 15.26235965 80422
STARLINK-31092          
1 58628U 23203L   25144.36236843  .00002418  00000+0  97403-4 0  9991
2 58628  43.0009 260.9635 0001279 272.4506  87.6199 15.27567140 80481
STARLINK-31091          
1 58629U 23203M   25144.01629542 -.00000147  00000+0  41945-5 0  9995
2 58629  42.9991 264.3860 0000244 241.0853 118.9973 15.25906260 80303
STARLINK-31084          
1 58630U 23203N   25144.34131972  .00000582  00000+0  32090-4 0  9990
2 58630  43.0020 262.5278 0002330 280.7311  79.3278 15.25910279 80527
STARLINK-31064          
1 58631U 23203P   25143.81310679  .00002601  00000+0  10917-3 0  9992
2 58631  43.0008 265.4511 0001832 270.8994  89.1647 15.25938001 80385
STARLINK-31081          
1 58632U 23203Q   25144.33453379 -.00002350  00000+0 -80071-4 0  9998
2 58632  43.0008 262.4828 0002013 264.4612  95.6010 15.25889629 80468
STARLINK-31022          
1 58633U 23203R   25143.61901683 -.00001109  00000+0 -32523-4 0  9995
2 58633  42.9978 266.5693 0002709 283.5162  76.5387 15.25915418 80418
STARLINK-31025          
1 58634U 23203S   25144.32492559  .00003482  00000+0  14294-3 0  9990
2 58634  42.9976 258.9023 0001299 244.9396 115.1320 15.25899451 80563
STARLINK-31018          
1 58635U 23203T   25144.39192920  .00001497  00000+0  63915-4 0  9996
2 58635  43.0019 261.1955 0001237 270.0705  90.0005 15.27573422 80548
STARLINK-31008          
1 58636U 23203U   25143.80599539 -.00000045  00000+0  78969-5 0  9994
2 58636  43.0031 264.5374 0002095 271.9154  88.1458 15.27609854 80455
